start=new Date('2023-05-26T00:00:00.000Z').valueOf();
sats=[{"FILE":"3916549","DECAY_DATE":null,"CENTER_NAME":"EARTH","NORAD_CAT_ID":"53931","OBJECT_ID":"2022-119AX","SEMIMAJOR_AXIS":"6917.886","RCS_SIZE":"LARGE","OBJECT_TYPE":"PAYLOAD","EPHEMERIS_TYPE":"0","REF_FRAME":"TEME","MEAN_MOTION":"15.08838020","ECCENTRICITY":"0.00008040","TIME_SYSTEM":"UTC","BSTAR":"0.00016120000000","TLE_LINE1":"1 53931U 22119AX  23144.35074583  .00002279  00000-0  16120-3 0  9998","LAUNCH_DATE":"2022-09-24","EPOCH":"2023-05-24T08:25:04.439712","PERIOD":"95.438","ELEMENT_SET_NO":"999","TLE_LINE2":"2 53931  53.2146 199.2650 0000804  83.8049 276.3035 15.08838020 38002","MEAN_ANOMALY":"276.3035","RA_OF_ASC_NODE":"199.2650","COUNTRY_CODE":"US","OBJECT_NAME":"STARLINK-5015","PERIAPSIS":"539.195","MEAN_MOTION_DDOT":"0.0000000000000","MEAN_ELEMENT_THEORY":"SGP4","MEAN_MOTION_DOT":"0.00002279","APOAPSIS":"540.308","ARG_OF_PERICENTER":"83.8049","REV_AT_EPOCH":"3800","SITE":"AFETR","GP_ID":"232449807","CLASSIFICATION_TYPE":"U","INCLINATION":"53.2146"},{"ECCENTRICITY":"0.00009470","MEAN_MOTION":"15.08838080","TIME_SYSTEM":"UTC","BSTAR":"0.00014087000000","TLE_LINE1":"1 53932U 22119AY  23144.58999397  .00001955  00000-0  14087-3 0  9993","EPHEMERIS_TYPE":"0","REF_FRAME":"TEME","EPOCH":"2023-05-24T14:09:35.479008","LAUNCH_DATE":"2022-09-24","SEMIMAJOR_AXIS":"6917.886","OBJECT_ID":"2022-119AY","FILE":"3916549","DECAY_DATE":null,"CENTER_NAME":"EARTH","NORAD_CAT_ID":"53932","OBJECT_TYPE":"PAYLOAD","RCS_SIZE":"LARGE","ARG_OF_PERICENTER":"93.9610","SITE":"AFETR","REV_AT_EPOCH":"3804","CLASSIFICATION_TYPE":"U","INCLINATION":"53.2166","GP_ID":"232450556","TLE_LINE2":"2 53932  53.2166 198.6179 0000947  93.9610 266.1490 15.08838080 38040","MEAN_ANOMALY":"266.1490","RA_OF_ASC_NODE":"198.6179","OBJECT_NAME":"STARLINK-4772","COUNTRY_CODE":"US","PERIOD":"95.438","ELEMENT_SET_NO":"999","APOAPSIS":"540.406","PERIAPSIS":"539.096","MEAN_MOTION_DDOT":"0.0000000000000","MEAN_ELEMENT_THEORY":"SGP4","MEAN_MOTION_DOT":"0.00001955"},{"EPOCH":"2023-05-24T13:39:44.363808","LAUNCH_DATE":"2022-09-24","TIME_SYSTEM":"UTC","BSTAR":"0.00017628000000","TLE_LINE1":"1 53933U 22119AZ  23144.56926347  .00002519  00000-0  17628-3 0  9998","ECCENTRICITY":"0.00010910","MEAN_MOTION":"15.08842291","EPHEMERIS_TYPE":"0","REF_FRAME":"TEME","OBJECT_TYPE":"PAYLOAD","RCS_SIZE":"LARGE","SEMIMAJOR_AXIS":"6917.873","OBJECT_ID":"2022-119AZ","CENTER_NAME":"EARTH","DECAY_DATE":null,"NORAD_CAT_ID":"53933","FILE":"3916549","CLASSIFICATION_TYPE":"U","INCLINATION":"53.2158","GP_ID":"232450801","REV_AT_EPOCH":"3796","SITE":"AFETR","ARG_OF_PERICENTER":"83.1953","APOAPSIS":"540.493","MEAN_ELEMENT_THEORY":"SGP4","MEAN_MOTION_DOT":"0.00002519","PERIAPSIS":"538.984","MEAN_MOTION_DDOT":"0.0000000000000","RA_OF_ASC_NODE":"203.4770","COUNTRY_CODE":"US","OBJECT_NAME":"STARLINK-4782","MEAN_ANOMALY":"276.9163","TLE_LINE2":"2 53933  53.2158 203.4770 0001091  83.1953 276.9163 15.08842291 37961","ELEMENT_SET_NO":"999","PERIOD":"95.437"},{"MEAN_MOTION_DDOT":"0.0000000000000","PERIAPSIS":"538.983","MEAN_MOTION_DOT":"0.00002453","MEAN_ELEMENT_THEORY":"SGP4","APOAPSIS":"540.528","PERIOD":"95.438","ELEMENT_SET_NO":"999","TLE_LINE2":"2 53934  53.2175 199.7856 0001117  96.9487 263.1632 15.08836754 38019","MEAN_ANOMALY":"263.1632","COUNTRY_CODE":"US","OBJECT_NAME":"STARLINK-4775","RA_OF_ASC_NODE":"199.7856","GP_ID":"232451553","INCLINATION":"53.2175","CLASSIFICATION_TYPE":"U","ARG_OF_PERICENTER":"96.9487","REV_AT_EPOCH":"3801","SITE":"AFETR","RCS_SIZE":"LARGE","OBJECT_TYPE":"PAYLOAD","FILE":"3916549","NORAD_CAT_ID":"53934","DECAY_DATE":null,"CENTER_NAME":"EARTH","OBJECT_ID":"2022-119BA","SEMIMAJOR_AXIS":"6917.890","LAUNCH_DATE":"2022-09-24","EPOCH":"2023-05-24T07:42:44.547552","REF_FRAME":"TEME","EPHEMERIS_TYPE":"0","ECCENTRICITY":"0.00011170","MEAN_MOTION":"15.08836754","TLE_LINE1":"1 53934U 22119BA  23144.32134893  .00002453  00000-0  17215-3 0  9999","BSTAR":"0.00017215000000","TIME_SYSTEM":"UTC"},{"RCS_SIZE":"LARGE","OBJECT_TYPE":"PAYLOAD","FILE":"3916549","DECAY_DATE":null,"CENTER_NAME":"EARTH","NORAD_CAT_ID":"53935","SEMIMAJOR_AXIS":"6917.892","OBJECT_ID":"2022-119BB","LAUNCH_DATE":"2022-09-24","EPOCH":"2023-05-24T08:52:55.756128","EPHEMERIS_TYPE":"0","REF_FRAME":"TEME","ECCENTRICITY":"0.00009670","MEAN_MOTION":"15.08836081","TIME_SYSTEM":"UTC","BSTAR":"0.00009258800000","TLE_LINE1":"1 53935U 22119BB  23144.37008977  .00001186  00000-0  92588-4 0  9997","PERIAPSIS":"539.088","MEAN_MOTION_DDOT":"0.0000000000000","MEAN_ELEMENT_THEORY":"SGP4","MEAN_MOTION_DOT":"0.00001186","APOAPSIS":"540.426","PERIOD":"95.438","ELEMENT_SET_NO":"999","MEAN_ANOMALY":"259.1506","TLE_LINE2":"2 53935  53.2176 189.3958 0000967 100.9595 259.1506 15.08836081 38149","RA_OF_ASC_NODE":"189.3958","COUNTRY_CODE":"US","OBJECT_NAME":"STARLINK-5000","GP_ID":"232450308","CLASSIFICATION_TYPE":"U","INCLINATION":"53.2176","ARG_OF_PERICENTER":"100.9595","SITE":"AFETR","REV_AT_EPOCH":"3814"},{"OBJECT_TYPE":"PAYLOAD","RCS_SIZE":"LARGE","SEMIMAJOR_AXIS":"6917.887","OBJECT_ID":"2022-119BC","NORAD_CAT_ID":"53936","DECAY_DATE":null,"CENTER_NAME":"EARTH","FILE":"3916549","EPOCH":"2023-05-24T08:35:40.857792","LAUNCH_DATE":"2022-09-24","TLE_LINE1":"1 53936U 22119BC  23144.35811178  .00002651  00000-0  18460-3 0  9995","BSTAR":"0.00018460000000","TIME_SYSTEM":"UTC","ECCENTRICITY":"0.00011620","MEAN_MOTION":"15.08837690","EPHEMERIS_TYPE":"0","REF_FRAME":"TEME","APOAPSIS":"540.556","MEAN_MOTION_DOT":"0.00002651","MEAN_ELEMENT_THEORY":"SGP4","MEAN_MOTION_DDOT":"0.0000000000000","PERIAPSIS":"538.949","COUNTRY_CODE":"US","OBJECT_NAME":"STARLINK-4791","RA_OF_ASC_NODE":"199.3052","TLE_LINE2":"2 53936  53.2167 199.3052 0001162  76.2166 283.8956 15.08837690 38019","MEAN_ANOMALY":"283.8956","ELEMENT_SET_NO":"999","PERIOD":"95.438","INCLINATION":"53.2167","CLASSIFICATION_TYPE":"U","GP_ID":"232451057","REV_AT_EPOCH":"3801","SITE":"AFETR","ARG_OF_PERICENTER":"76.2166"},{"FILE":"3916549","NORAD_CAT_ID":"53937","DECAY_DATE":null,"CENTER_NAME":"EARTH","SEMIMAJOR_AXIS":"6917.900","OBJECT_ID":"2022-119BD","RCS_SIZE":"LARGE","OBJECT_TYPE":"PAYLOAD","EPHEMERIS_TYPE":"0","REF_FRAME":"TEME","ECCENTRICITY":"0.00009310","MEAN_MOTION":"15.08833433","TLE_LINE1":"1 53937U 22119BD  23144.37515654  .00002349  00000-0  16567-3 0  9998","BSTAR":"0.00016567000000","TIME_SYSTEM":"UTC","LAUNCH_DATE":"2022-09-24","EPOCH":"2023-05-24T09:00:13.525056","PERIOD":"95.438","ELEMENT_SET_NO":"999","TLE_LINE2":"2 53937  53.2160 194.4275 0000931 100.5241 259.5857 15.08833433 38071","MEAN_ANOMALY":"259.5857","COUNTRY_CODE":"US","OBJECT_NAME":"STARLINK-4765","RA_OF_ASC_NODE":"194.4275","MEAN_MOTION_DDOT":"0.0000000000000","PERIAPSIS":"539.121","MEAN_MOTION_DOT":"0.00002349","MEAN_ELEMENT_THEORY":"SGP4","APOAPSIS":"540.410","ARG_OF_PERICENTER":"100.5241","REV_AT_EPOCH":"3807","SITE":"AFETR","GP_ID":"232451302","INCLINATION":"53.2160","CLASSIFICATION_TYPE":"U"},{"ARG_OF_PERICENTER":"91.2216","SITE":"AFWTR","REV_AT_EPOCH":"3526","GP_ID":"232451555","CLASSIFICATION_TYPE":"U","INCLINATION":"53.2154","PERIOD":"95.438","ELEMENT_SET_NO":"999","MEAN_ANOMALY":"268.8908","TLE_LINE2":"2 53964  53.2154 125.3410 0001153  91.2216 268.8908 15.08837120 35268","RA_OF_ASC_NODE":"125.3410","COUNTRY_CODE":"US","OBJECT_NAME":"STARLINK-4633","PERIAPSIS":"538.957","MEAN_MOTION_DDOT":"0.0000000000000","MEAN_ELEMENT_THEORY":"SGP4","MEAN_MOTION_DOT":"0.00000813","APOAPSIS":"540.552","EPHEMERIS_TYPE":"0","REF_FRAME":"TEME","ECCENTRICITY":"0.00011530","MEAN_MOTION":"15.08837120","TIME_SYSTEM":"UTC","TLE_LINE1":"1 53964U 22125A   23144.21970104  .00000813  00000-0  69136-4 0  9998","BSTAR":"0.00006913600000","LAUNCH_DATE":"2022-10-05","EPOCH":"2023-05-24T05:16:22.169856","FILE":"3916549","DECAY_DATE":null,"CENTER_NAME":"EARTH","NORAD_CAT_ID":"53964","SEMIMAJOR_AXIS":"6917.889","OBJECT_ID":"2022-125A","RCS_SIZE":"LARGE","OBJECT_TYPE":"PAYLOAD"},{"LAUNCH_DATE":"2022-10-05","EPOCH":"2023-05-24T05:12:26.364384","EPHEMERIS_TYPE":"0","REF_FRAME":"TEME","TIME_SYSTEM":"UTC","BSTAR":"0.00005859100000","TLE_LINE1":"1 53965U 22125B   23144.21697181  .00000645  00000-0  58591-4 0  9996","ECCENTRICITY":"0.00013970","MEAN_MOTION":"15.08844811","RCS_SIZE":"LARGE","OBJECT_TYPE":"PAYLOAD","DECAY_DATE":null,"CENTER_NAME":"EARTH","NORAD_CAT_ID":"53965","FILE":"3916549","SEMIMAJOR_AXIS":"6917.866","OBJECT_ID":"2022-125B","GP_ID":"232450310","CLASSIFICATION_TYPE":"U","INCLINATION":"53.2159","SITE":"AFWTR","REV_AT_EPOCH":"3526","ARG_OF_PERICENTER":"80.3198","MEAN_ELEMENT_THEORY":"SGP4","MEAN_MOTION_DOT":"0.00000645","PERIAPSIS":"538.764","MEAN_MOTION_DDOT":"0.0000000000000","APOAPSIS":"540.697","ELEMENT_SET_NO":"999","PERIOD":"95.437","RA_OF_ASC_NODE":"125.3254","COUNTRY_CODE":"US","OBJECT_NAME":"STARLINK-4578","MEAN_ANOMALY":"279.7952","TLE_LINE2":"2 53965  53.2159 125.3254 0001397  80.3198 279.7952 15.08844811 35263"},{"EPOCH":"2023-05-24T05:05:45.556512","LAUNCH_DATE":"2022-10-05","TLE_LINE1":"1 53966U 22125C   23144.21233283  .00001123  00000-0  88610-4 0  9993","BSTAR":"0.00008861000000","TIME_SYSTEM":"UTC","ECCENTRICITY":"0.00011480","MEAN_MOTION":"15.08835309","EPHEMERIS_TYPE":"0","REF_FRAME":"TEME","OBJECT_TYPE":"PAYLOAD","RCS_SIZE":"LARGE","SEMIMAJOR_AXIS":"6917.895","OBJECT_ID":"2022-125C","NORAD_CAT_ID":"53966","DECAY_DATE":null,"CENTER_NAME":"EARTH","FILE":"3916549","INCLINATION":"53.2156","CLASSIFICATION_TYPE":"U","GP_ID":"232451059","SITE":"AFWTR","REV_AT_EPOCH":"3526","ARG_OF_PERICENTER":"89.1369","APOAPSIS":"540.554","MEAN_MOTION_DOT":"0.00001123","MEAN_ELEMENT_THEORY":"SGP4","MEAN_MOTION_DDOT":"0.0000000000000","PERIAPSIS":"538.966","COUNTRY_CODE":"US","OBJECT_NAME":"STARLINK-4635","RA_OF_ASC_NODE":"125.2941","MEAN_ANOMALY":"270.9755","TLE_LINE2":"2 53966  53.2156 125.2941 0001148  89.1369 270.9755 15.08835309 35260","ELEMENT_SET_NO":"999","PERIOD":"95.438"}];
